[{"OBJECT_NAME":"STARLINK-35549","OBJECT_ID":"2025-237AB","EPOCH":"2026-03-09T07:08:41.045856","MEAN_MOTION":15.30194621,"ECCENTRICITY":0.00012771,"INCLINATION":53.1611,"RA_OF_ASC_NODE":41.2195,"ARG_OF_PERICENTER":85.3539,"MEAN_ANOMALY":274.7608,"EPHEMERIS_TYPE":0,"CLASSIFICATION_TYPE":"U","NORAD_CAT_ID":66139,"ELEMENT_SET_NO":999,"REV_AT_EPOCH":2255,"BSTAR":0.0010537818,"MEAN_MOTION_DOT":0.00030976,"MEAN_MOTION_DDOT":0},{"OBJECT_NAME":"CZ-6A DEB","OBJECT_ID":"2022-151EM","EPOCH":"2026-03-09T21:12:10.844640","MEAN_MOTION":15.1479521,"ECCENTRICITY":0.00732342,"INCLINATION":98.809,"RA_OF_ASC_NODE":212.6624,"ARG_OF_PERICENTER":10.5605,"MEAN_ANOMALY":349.714,"EPHEMERIS_TYPE":0,"CLASSIFICATION_TYPE":"U","NORAD_CAT_ID":54413,"ELEMENT_SET_NO":999,"REV_AT_EPOCH":17915,"BSTAR":0.0020661814,"MEAN_MOTION_DOT":0.00041137,"MEAN_MOTION_DDOT":0}]
